{
    "links": {
        "self": "http://www.neowsapp.com/rest/v1/neo/54054533?api_key=iIulBulltgU6a56xZRHN4H3l9WmuAYTsLGpBGhQ2"
    },
    "id": "54054533",
    "neo_reference_id": "54054533",
    "name": "(2020 SP2)",
    "designation": "2020 SP2",
    "nasa_jpl_url": "http://ssd.jpl.nasa.gov/sbdb.cgi?sstr=54054533",
    "absolute_magnitude_h": 24.076,
    "estimated_diameter": {
        "kilometers": {
            "estimated_diameter_min": 0.0406775677,
            "estimated_diameter_max": 0.0909578065
        },
        "meters": {
            "estimated_diameter_min": 40.6775677053,
            "estimated_diameter_max": 90.9578065483
        },
        "miles": {
            "estimated_diameter_min": 0.0252758609,
            "estimated_diameter_max": 0.0565185432
        },
        "feet": {
            "estimated_diameter_min": 133.4565912302,
            "estimated_diameter_max": 298.4180100361
        }
    },
    "is_potentially_hazardous_asteroid": false,
    "close_approach_data": [
        {
            "close_approach_date": "1994-09-18",
            "close_approach_date_full": "1994-Sep-18 05:30",
            "epoch_date_close_approach": 779866200000,
            "relative_velocity": {
                "kilometers_per_second": "10.2830269543",
                "kilometers_per_hour": "37018.8970354217",
                "miles_per_hour": "23002.1029940374"
            },
            "miss_distance": {
                "astronomical": "0.196458236",
                "lunar": "76.422253804",
                "kilometers": "29389733.64955732",
                "miles": "18261933.672718216"
            },
            "orbiting_body": "Earth"
        },
        {
            "close_approach_date": "2007-09-21",
            "close_approach_date_full": "2007-Sep-21 18:14",
            "epoch_date_close_approach": 1190398440000,
            "relative_velocity": {
                "kilometers_per_second": "7.9556647021",
                "kilometers_per_hour": "28640.3929276714",
                "miles_per_hour": "17796.0263721967"
            },
            "miss_distance": {
                "astronomical": "0.1121208822",
                "lunar": "43.6150231758",
                "kilometers": "16773045.159640914",
                "miles": "10422286.9743320532"
            },
            "orbiting_body": "Earth"
        },
        {
            "close_approach_date": "2020-09-22",
            "close_approach_date_full": "2020-Sep-22 02:46",
            "epoch_date_close_approach": 1600742760000,
            "relative_velocity": {
                "kilometers_per_second": "6.8297655178",
                "kilometers_per_hour": "24587.1558640219",
                "miles_per_hour": "15277.5024867307"
            },
            "miss_distance": {
                "astronomical": "0.1084192223",
                "lunar": "42.1750774747",
                "kilometers": "16219284.723136501",
                "miles": "10078196.1947896738"
            },
            "orbiting_body": "Earth"
        },
        {
            "close_approach_date": "2033-09-20",
            "close_approach_date_full": "2033-Sep-20 22:08",
            "epoch_date_close_approach": 2010866880000,
            "relative_velocity": {
                "kilometers_per_second": "6.2596171427",
                "kilometers_per_hour": "22534.6217136637",
                "miles_per_hour": "14002.1375864706"
            },
            "miss_distance": {
                "astronomical": "0.1735088902",
                "lunar": "67.4949582878",
                "kilometers": "25956560.399983874",
                "miles": "16128658.7367065012"
            },
            "orbiting_body": "Earth"
        },
        {
            "close_approach_date": "2051-09-08",
            "close_approach_date_full": "2051-Sep-08 00:34",
            "epoch_date_close_approach": 2577746040000,
            "relative_velocity": {
                "kilometers_per_second": "17.3009942001",
                "kilometers_per_hour": "62283.5791204752",
                "miles_per_hour": "38700.5939262753"
            },
            "miss_distance": {
                "astronomical": "0.4657021094",
                "lunar": "181.1581205566",
                "kilometers": "69668043.620746978",
                "miles": "43289714.9351771764"
            },
            "orbiting_body": "Earth"
        }
    ],
    "orbital_data": {
        "orbit_id": "5",
        "orbit_determination_date": "2020-10-27 07:14:48",
        "first_observation_date": "2020-09-06",
        "last_observation_date": "2020-09-30",
        "data_arc_in_days": 24,
        "observations_used": 43,
        "orbit_uncertainty": "7",
        "minimum_orbit_intersection": ".102293",
        "jupiter_tisserand_invariant": "4.740",
        "epoch_osculation": "2459000.5",
        "eccentricity": ".2458394178548934",
        "semi_major_axis": "1.383211738794623",
        "inclination": "11.987067576468",
        "ascending_node_longitude": "345.3889069183056",
        "orbital_period": "594.1983285646663",
        "perihelion_distance": "1.043163770159298",
        "perihelion_argument": "52.87902039374828",
        "aphelion_distance": "1.723259707429948",
        "perihelion_time": "2459155.313649421307",
        "mean_anomaly": "266.2048627327887",
        "mean_motion": ".6058583181639182",
        "equinox": "J2000",
        "orbit_class": {
            "orbit_class_type": "AMO",
            "orbit_class_description": "Near-Earth asteroid orbits similar to that of 1221 Amor",
            "orbit_class_range": "1.017 AU < q (perihelion) < 1.3 AU"
        }
    },
    "is_sentry_object": false
}